{
  "type": "FeatureCollection",
  "features": [
    {
      "type": "Feature",
      "properties": {
        "norad_id": 37781,
        "name": "HAIYANG-2A",
        "group": "resource",
        "lat": 48.07957133393081,
        "lon": -173.8458273277712,
        "alt_km": 963.0177431392858,
        "timestamp": "2025-12-20T18:51:31.374835+00:00",
        "meta_object_name": "HAIYANG-2A",
        "meta_object_id": "2011-043A",
        "meta_epoch": "2025-12-20T13:00:04.384224",
        "meta_mean_motion": 13.7883669,
        "meta_eccentricity": 0.00016408,
        "meta_inclination": 99.337,
        "meta_ra_of_asc_node": 355.356,
        "meta_arg_of_pericenter": 72.1405,
        "meta_mean_anomaly": 287.9926,
        "meta_ephemeris_type": 0,
        "meta_classification_type": "U",
        "meta_norad_cat_id": 37781,
        "meta_element_set_no": 999,
        "meta_rev_at_epoch": 72206,
        "meta_bstar": 0.00021597379,
        "meta_mean_motion_dot": 1.76e-06,
        "meta_mean_motion_ddot": 0,
        "tle_line1": "1 37781U 11043A   25354.54171741  .00000176  00000+0  21597-3 0  9994",
        "tle_line2": "2 37781  99.3370 355.3560 0001640  72.1405 287.9926 13.78836690722067"
      },
      "geometry": {
        "type": "Point",
        "coordinates": [
          -173.8458273277712,
          48.07957133393081
        ]
      }
    },
    {
      "type": "Feature",
      "properties": {
        "norad_id": 37791,
        "name": "RASAT",
        "group": "resource",
        "lat": -55.82611147270079,
        "lon": 95.97977030761386,
        "alt_km": 676.6851103094887,
        "timestamp": "2025-12-20T18:51:31.374846+00:00",
        "meta_object_name": "RASAT",
        "meta_object_id": "2011-044D",
        "meta_epoch": "2025-12-20T14:49:53.107392",
        "meta_mean_motion": 14.67920253,
        "meta_eccentricity": 0.00215536,
        "meta_inclination": 98.0653,
        "meta_ra_of_asc_node": 83.7593,
        "meta_arg_of_pericenter": 41.2858,
        "meta_mean_anomaly": 96.1207,
        "meta_ephemeris_type": 0,
        "meta_classification_type": "U",
        "meta_norad_cat_id": 37791,
        "meta_element_set_no": 999,
        "meta_rev_at_epoch": 76698,
        "meta_bstar": 0.00011136624,
        "meta_mean_motion_dot": 5.9e-06,
        "meta_mean_motion_ddot": 0,
        "tle_line1": "1 37791U 11044D   25354.61797578  .00000590  00000+0  11137-3 0  9995",
        "tle_line2": "2 37791  98.0653  83.7593 0021553  41.2858  96.1207 14.67920253766989"
      },
      "geometry": {
        "type": "Point",
        "coordinates": [
          95.97977030761386,
          -55.82611147270079
        ]
      }
    },
    {
      "type": "Feature",
      "properties": {
        "norad_id": 37841,
        "name": "SRMSAT",
        "group": "resource",
        "lat": 2.8401960723592246,
        "lon": 67.10673761409456,
        "alt_km": 844.2874454891098,
        "timestamp": "2025-12-20T18:51:31.374856+00:00",
        "meta_object_name": "SRMSAT",
        "meta_object_id": "2011-058D",
        "meta_epoch": "2025-12-20T12:38:09.085920",
        "meta_mean_motion": 14.11513957,
        "meta_eccentricity": 0.00119464,
        "meta_inclination": 19.9724,
        "meta_ra_of_asc_node": 60.8238,
        "meta_arg_of_pericenter": 39.0399,
        "meta_mean_anomaly": 89.0233,
        "meta_ephemeris_type": 0,
        "meta_classification_type": "U",
        "meta_norad_cat_id": 37841,
        "meta_element_set_no": 999,
        "meta_rev_at_epoch": 73254,
        "meta_bstar": 6.676578e-05,
        "meta_mean_motion_dot": 3.88e-06,
        "meta_mean_motion_ddot": 0,
        "tle_line1": "1 37841U 11058D   25354.52649405  .00000388  00000+0  66766-4 0  9995",
        "tle_line2": "2 37841  19.9724  60.8238 0011946  39.0399  89.0233 14.11513957732541"
      },
      "geometry": {
        "type": "Point",
        "coordinates": [
          67.10673761409456,
          2.8401960723592246
        ]
      }
    },
    {
      "type": "Feature",
      "properties": {
        "norad_id": 38012,
        "name": "PLEIADES 1A",
        "group": "resource",
        "lat": -8.43866734104544,
        "lon": -113.79237896517067,
        "alt_km": 702.1540853337565,
        "timestamp": "2025-12-20T18:51:31.374866+00:00",
        "meta_object_name": "PLEIADES 1A",
        "meta_object_id": "2011-076F",
        "meta_epoch": "2025-12-20T15:29:02.693184",
        "meta_mean_motion": 14.58569069,
        "meta_eccentricity": 0.00011707,
        "meta_inclination": 98.1822,
        "meta_ra_of_asc_node": 67.2923,
        "meta_arg_of_pericenter": 74.4663,
        "meta_mean_anomaly": 96.0444,
        "meta_ephemeris_type": 0,
        "meta_classification_type": "U",
        "meta_norad_cat_id": 38012,
        "meta_element_set_no": 999,
        "meta_rev_at_epoch": 74596,
        "meta_bstar": 0.00012921248,
        "meta_mean_motion_dot": 5.55e-06,
        "meta_mean_motion_ddot": 0,
        "tle_line1": "1 38012U 11076F   25354.64517006  .00000555  00000+0  12921-3 0  9999",
        "tle_line2": "2 38012  98.1822  67.2923 0001170  74.4663  96.0444 14.58569069745965"
      },
      "geometry": {
        "type": "Point",
        "coordinates": [
          -113.79237896517067,
          -8.43866734104544
        ]
      }
    },
    {
      "type": "Feature",
      "properties": {
        "norad_id": 38038,
        "name": "ZIYUAN 1-02C (ZY 1-02C)",
        "group": "resource",
        "lat": -41.58163218604121,
        "lon": -126.91220232803543,
        "alt_km": 772.9724159786019,
        "timestamp": "2025-12-20T18:51:31.374876+00:00",
        "meta_object_name": "ZIYUAN 1-02C (ZY 1-02C)",
        "meta_object_id": "2011-079A",
        "meta_epoch": "2025-12-20T15:13:15.681792",
        "meta_mean_motion": 14.38020995,
        "meta_eccentricity": 0.00074495,
        "meta_inclination": 98.4331,
        "meta_ra_of_asc_node": 60.5028,
        "meta_arg_of_pericenter": 117.5487,
        "meta_mean_anomaly": 40.2066,
        "meta_ephemeris_type": 0,
        "meta_classification_type": "U",
        "meta_norad_cat_id": 38038,
        "meta_element_set_no": 999,
        "meta_rev_at_epoch": 73354,
        "meta_bstar": 0.00019796363,
        "meta_mean_motion_dot": 5.56e-06,
        "meta_mean_motion_ddot": 0,
        "tle_line1": "1 38038U 11079A   25354.63420928  .00000556  00000+0  19796-3 0  9993",
        "tle_line2": "2 38038  98.4331  60.5028 0007449 117.5487  40.2066 14.38020995733541"
      },
      "geometry": {
        "type": "Point",
        "coordinates": [
          -126.91220232803543,
          -41.58163218604121
        ]
      }
    },
    {
      "type": "Feature",
      "properties": {
        "norad_id": 38338,
        "name": "ARIRANG-3 (KOMPSAT-3)",
        "group": "resource",
        "lat": 2.782642384753625,
        "lon": 129.84435775522942,
        "alt_km": 692.6154821508462,
        "timestamp": "2025-12-20T18:51:31.374886+00:00",
        "meta_object_name": "ARIRANG-3 (KOMPSAT-3)",
        "meta_object_id": "2012-025B",
        "meta_epoch": "2025-12-20T14:45:54.309024",
        "meta_mean_motion": 14.61722035,
        "meta_eccentricity": 0.00048872,
        "meta_inclination": 98.3334,
        "meta_ra_of_asc_node": 309.2643,
        "meta_arg_of_pericenter": 311.2708,
        "meta_mean_anomaly": 48.8071,
        "meta_ephemeris_type": 0,
        "meta_classification_type": "U",
        "meta_norad_cat_id": 38338,
        "meta_element_set_no": 999,
        "meta_rev_at_epoch": 72525,
        "meta_bstar": 8.4655137e-05,
        "meta_mean_motion_dot": 3.73e-06,
        "meta_mean_motion_ddot": 0,
        "tle_line1": "1 38338U 12025B   25354.61521191  .00000373  00000+0  84655-4 0  9994",
        "tle_line2": "2 38338  98.3334 309.2643 0004887 311.2708  48.8071 14.61722035725253"
      },
      "geometry": {
        "type": "Point",
        "coordinates": [
          129.84435775522942,
          2.782642384753625
        ]
      }
    },
    {
      "type": "Feature",
      "properties": {
        "norad_id": 38709,
        "name": "EXACTVIEW-1 (ADS-1B)",
        "group": "resource",
        "lat": -10.504506252985882,
        "lon": -78.33254126623346,
        "alt_km": 818.6194070889424,
        "timestamp": "2025-12-20T18:51:31.374896+00:00",
        "meta_object_name": "EXACTVIEW-1 (ADS-1B)",
        "meta_object_id": "2012-039C",
        "meta_epoch": "2025-12-20T12:54:39.554784",
        "meta_mean_motion": 14.2491086,
        "meta_eccentricity": 0.00102847,
        "meta_inclination": 98.9639,
        "meta_ra_of_asc_node": 103.0916,
        "meta_arg_of_pericenter": 331.1371,
        "meta_mean_anomaly": 28.9238,
        "meta_ephemeris_type": 0,
        "meta_classification_type": "U",
        "meta_norad_cat_id": 38709,
        "meta_element_set_no": 999,
        "meta_rev_at_epoch": 69726,
        "meta_bstar": 6.1439079e-05,
        "meta_mean_motion_dot": 9.7e-07,
        "meta_mean_motion_ddot": 0,
        "tle_line1": "1 38709U 12039C   25354.53795781  .00000097  00000+0  61439-4 0  9998",
        "tle_line2": "2 38709  98.9639 103.0916 0010284 331.1371  28.9238 14.24910860697264"
      },
      "geometry": {
        "type": "Point",
        "coordinates": [
          -78.33254126623346,
          -10.504506252985882
        ]
      }
    }
  ]
}